[{"OBJECT_NAME":"STARLINK-3867","OBJECT_ID":"2022-051BD","EPOCH":"2026-03-09T12:19:03.360576","MEAN_MOTION":15.08845887,"ECCENTRICITY":0.00015785,"INCLINATION":53.2172,"RA_OF_ASC_NODE":119.7694,"ARG_OF_PERICENTER":93.2219,"MEAN_ANOMALY":266.8953,"EPHEMERIS_TYPE":0,"CLASSIFICATION_TYPE":"U","NORAD_CAT_ID":52587,"ELEMENT_SET_NO":999,"REV_AT_EPOCH":21156,"BSTAR":0.00026777046,"MEAN_MOTION_DOT":3.977e-5,"MEAN_MOTION_DDOT":0},{"OBJECT_NAME":"CZ-6A DEB","OBJECT_ID":"2024-140LQ","EPOCH":"2026-03-09T12:39:56.979648","MEAN_MOTION":14.85929139,"ECCENTRICITY":0.01771612,"INCLINATION":88.9207,"RA_OF_ASC_NODE":273.583,"ARG_OF_PERICENTER":149.2711,"MEAN_ANOMALY":211.9037,"EPHEMERIS_TYPE":0,"CLASSIFICATION_TYPE":"U","NORAD_CAT_ID":60965,"ELEMENT_SET_NO":999,"REV_AT_EPOCH":8358,"BSTAR":0.00081105729,"MEAN_MOTION_DOT":9.447e-5,"MEAN_MOTION_DDOT":0}]
